{
  "type": "FeatureCollection",
  "features": [
    {
      "type": "Feature",
      "properties": {
        "norad_id": 54741,
        "name": "GALAXY 35 (G-35)",
        "group": "intelsat",
        "lat": 0.02561644948007866,
        "lon": 127.05042677933365,
        "alt_km": 35794.655871914765,
        "timestamp": "2025-12-16T08:59:42.827095+00:00",
        "meta_object_name": "GALAXY 35 (G-35)",
        "meta_object_id": "2022-170A",
        "meta_epoch": "2025-12-15T21:30:19.579680",
        "meta_mean_motion": 1.00269192,
        "meta_eccentricity": 0.0002262,
        "meta_inclination": 0.0164,
        "meta_ra_of_asc_node": 353.0108,
        "meta_arg_of_pericenter": 278.9584,
        "meta_mean_anomaly": 42.2938,
        "meta_ephemeris_type": 0,
        "meta_classification_type": "U",
        "meta_norad_cat_id": 54741,
        "meta_element_set_no": 999,
        "meta_rev_at_epoch": 1105,
        "meta_bstar": 0,
        "meta_mean_motion_dot": 0,
        "meta_mean_motion_ddot": 0,
        "tle_line1": "1 54741U 22170A   25349.89605995  .00000000  00000+0  00000+0 0  9995",
        "tle_line2": "2 54741   0.0164 353.0108 0002262 278.9584  42.2938  1.00269192 11054"
      },
      "geometry": {
        "type": "Point",
        "coordinates": [
          127.05042677933365,
          0.02561644948007866
        ]
      }
    },
    {
      "type": "Feature",
      "properties": {
        "norad_id": 54742,
        "name": "GALAXY 36 (G-36)",
        "group": "intelsat",
        "lat": -0.004216018179488888,
        "lon": 131.1869943802777,
        "alt_km": 35787.47646741288,
        "timestamp": "2025-12-16T08:59:42.827106+00:00",
        "meta_object_name": "GALAXY 36 (G-36)",
        "meta_object_id": "2022-170B",
        "meta_epoch": "2025-12-15T21:31:26.971680",
        "meta_mean_motion": 1.00271438,
        "meta_eccentricity": 3.153e-05,
        "meta_inclination": 0.0181,
        "meta_ra_of_asc_node": 265.0007,
        "meta_arg_of_pericenter": 63.01,
        "meta_mean_anomaly": 350.6505,
        "meta_ephemeris_type": 0,
        "meta_classification_type": "U",
        "meta_norad_cat_id": 54742,
        "meta_element_set_no": 999,
        "meta_rev_at_epoch": 1093,
        "meta_bstar": 0,
        "meta_mean_motion_dot": -1.63e-06,
        "meta_mean_motion_ddot": 0,
        "tle_line1": "1 54742U 22170B   25349.89683995 -.00000163  00000+0  00000+0 0  9993",
        "tle_line2": "2 54742   0.0181 265.0007 0000315  63.0100 350.6505  1.00271438 10936"
      },
      "geometry": {
        "type": "Point",
        "coordinates": [
          131.1869943802777,
          -0.004216018179488888
        ]
      }
    },
    {
      "type": "Feature",
      "properties": {
        "norad_id": 57493,
        "name": "GALAXY 37 (G-37)",
        "group": "intelsat",
        "lat": 0.028803223613786406,
        "lon": 93.19184467692126,
        "alt_km": 35794.18283805857,
        "timestamp": "2025-12-16T08:59:42.827118+00:00",
        "meta_object_name": "GALAXY 37 (G-37)",
        "meta_object_id": "2023-112A",
        "meta_epoch": "2025-12-15T17:55:13.094112",
        "meta_mean_motion": 1.0027286,
        "meta_eccentricity": 0.00019986,
        "meta_inclination": 0.0237,
        "meta_ra_of_asc_node": 55.0221,
        "meta_arg_of_pericenter": 215.3705,
        "meta_mean_anomaly": 316.0664,
        "meta_ephemeris_type": 0,
        "meta_classification_type": "U",
        "meta_norad_cat_id": 57493,
        "meta_element_set_no": 999,
        "meta_rev_at_epoch": 870,
        "meta_bstar": 0,
        "meta_mean_motion_dot": 7e-07,
        "meta_mean_motion_ddot": 0,
        "tle_line1": "1 57493U 23112A   25349.74667933  .00000070  00000+0  00000+0 0  9990",
        "tle_line2": "2 57493   0.0237  55.0221 0001998 215.3705 316.0664  1.00272860  8704"
      },
      "geometry": {
        "type": "Point",
        "coordinates": [
          93.19184467692126,
          0.028803223613786406
        ]
      }
    }
  ]
}